{"type": "FeatureCollection", "features": [{"type": "Feature", "properties": {"norad_id": 66549, "name": "SHIJIAN-28 (SJ-28)", "group": "last-30-days", "lat": 3.82906266563907, "lon": -34.97032771097567, "alt_km": 35786.672100657706, "timestamp": "2025-12-23T07:45:08.113898+00:00", "meta": {"OBJECT_NAME": "SHIJIAN-28 (SJ-28)", "OBJECT_ID": "2025-277A", "EPOCH": "2025-12-22T18:51:21.728160", "MEAN_MOTION": 1.0026661, "ECCENTRICITY": 0.00010301, "INCLINATION": 4.9941, "RA_OF_ASC_NODE": 274.7989, "ARG_OF_PERICENTER": 134.0697, "MEAN_ANOMALY": 82.3344, "EPHEMERIS_TYPE": 0, "CLASSIFICATION_TYPE": "U", "NORAD_CAT_ID": 66549, "ELEMENT_SET_NO": 999, "REV_AT_EPOCH": 38, "BSTAR": 0, "MEAN_MOTION_DOT": -3.36e-06, "MEAN_MOTION_DDOT": 0}, "tle": {"line1": "1 66549U 25277A   25356.78566815 -.00000336  00000+0  00000+0 0  9991", "line2": "2 66549   4.9941 274.7989 0001030 134.0697  82.3344  1.00266610   386"}}, "geometry": {"type": "Point", "coordinates": [-34.97032771097567, 3.82906266563907]}}, {"type": "Feature", "properties": {"norad_id": 66550, "name": "CZ-7A R/B", "group": "last-30-days", "lat": -0.16198540972782677, "lon": -96.59828520549966, "alt_km": 22575.648809384802, "timestamp": "2025-12-23T07:45:08.113947+00:00", "meta": {"OBJECT_NAME": "CZ-7A R/B", "OBJECT_ID": "2025-277B", "EPOCH": "2025-12-18T08:54:45.891072", "MEAN_MOTION": 2.8884184, "ECCENTRICITY": 0.6879086, "INCLINATION": 14.3533, "RA_OF_ASC_NODE": 266.9093, "ARG_OF_PERICENTER": 194.6822, "MEAN_ANOMALY": 125.1782, "EPHEMERIS_TYPE": 0, "CLASSIFICATION_TYPE": "U", "NORAD_CAT_ID": 66550, "ELEMENT_SET_NO": 999, "REV_AT_EPOCH": 50, "BSTAR": 0.0030391, "MEAN_MOTION_DOT": 0.0266328, "MEAN_MOTION_DDOT": 1.4058e-06}, "tle": {"line1": "1 66550U 25277B   25352.37136448  .02663280  14058-5  30391-2 0  9996", "line2": "2 66550  14.3533 266.9093 6879086 194.6822 125.1782  2.88841840   508"}}, "geometry": {"type": "Point", "coordinates": [-96.59828520549966, -0.16198540972782677]}}, {"type": "Feature", "properties": {"norad_id": 66554, "name": "GLOBAL-33", "group": "last-30-days", "lat": 8.308105527586992, "lon": 166.55889160414543, "alt_km": 466.39858247104075, "timestamp": "2025-12-23T07:45:08.113975+00:00", "meta": {"OBJECT_NAME": "GLOBAL-33", "OBJECT_ID": "2025-267A", "EPOCH": "2025-12-22T09:06:54.990432", "MEAN_MOTION": 15.31669226, "ECCENTRICITY": 0.0004199, "INCLINATION": 42.0212, "RA_OF_ASC_NODE": 1.3398, "ARG_OF_PERICENTER": 158.9843, "MEAN_ANOMALY": 201.1167, "EPHEMERIS_TYPE": 0, "CLASSIFICATION_TYPE": "U", "NORAD_CAT_ID": 66554, "ELEMENT_SET_NO": 999, "REV_AT_EPOCH": 488, "BSTAR": 0.00046455303, "MEAN_MOTION_DOT": 0.00014292, "MEAN_MOTION_DDOT": 0}, "tle": {"line1": "1 66554U 25267A   25356.37980313  .00014292  00000+0  46455-3 0  9997", "line2": "2 66554  42.0212   1.3398 0004199 158.9843 201.1167 15.31669226  4883"}}, "geometry": {"type": "Point", "coordinates": [166.55889160414543, 8.308105527586992]}}, {"type": "Feature", "properties": {"norad_id": 66557, "name": "STARLINK-35699", "group": "last-30-days", "lat": -40.11289259944258, "lon": -56.104169609227455, "alt_km": 422.92416924819827, "timestamp": "2025-12-23T07:45:08.113988+00:00", "meta": {"OBJECT_NAME": "STARLINK-35699", "OBJECT_ID": "2025-268A", "EPOCH": "2025-12-23T00:00:00.999648", "MEAN_MOTION": 15.50173277, "ECCENTRICITY": 0.00010096, "INCLINATION": 43.0003, "RA_OF_ASC_NODE": 61.0844, "ARG_OF_PERICENTER": 265.9648, "MEAN_ANOMALY": 341.0922, "EPHEMERIS_TYPE": 0, "CLASSIFICATION_TYPE": "U", "NORAD_CAT_ID": 66557, "ELEMENT_SET_NO": 999, "REV_AT_EPOCH": 610, "BSTAR": -0.040042316, "MEAN_MOTION_DOT": -0.02060462, "MEAN_MOTION_DDOT": 0}, "tle": {"line1": "1 66557U 25268A   25357.00001157 -.02060462  00000+0 -40042-1 0  9990", "line2": "2 66557  43.0003  61.0844 0001009 265.9648 341.0922 15.50173277  6100"}}, "geometry": {"type": "Point", "coordinates": [-56.104169609227455, -40.11289259944258]}}, {"type": "Feature", "properties": {"norad_id": 66558, "name": "STARLINK-35695", "group": "last-30-days", "lat": -41.76780924841215, "lon": -47.40510529420369, "alt_km": 420.44201355138284, "timestamp": "2025-12-23T07:45:08.114000+00:00", "meta": {"OBJECT_NAME": "STARLINK-35695", "OBJECT_ID": "2025-268B", "EPOCH": "2025-12-23T00:00:00.999648", "MEAN_MOTION": 15.51008751, "ECCENTRICITY": 0.00010981, "INCLINATION": 43.0007, "RA_OF_ASC_NODE": 61.071, "ARG_OF_PERICENTER": 264.5548, "MEAN_ANOMALY": 348.3176, "EPHEMERIS_TYPE": 0, "CLASSIFICATION_TYPE": "U", "NORAD_CAT_ID": 66558, "ELEMENT_SET_NO": 999, "REV_AT_EPOCH": 610, "BSTAR": -0.038708483, "MEAN_MOTION_DOT": -0.02053479, "MEAN_MOTION_DDOT": 0}, "tle": {"line1": "1 66558U 25268B   25357.00001157 -.02053479  00000+0 -38708-1 0  9997", "line2": "2 66558  43.0007  61.0710 0001098 264.5548 348.3176 15.51008751  6105"}}, "geometry": {"type": "Point", "coordinates": [-47.40510529420369, -41.76780924841215]}}, {"type": "Feature", "properties": {"norad_id": 66559, "name": "STARLINK-35419", "group": "last-30-days", "lat": -42.55618854994259, "lon": -21.01881510835653, "alt_km": 405.25801311683335, "timestamp": "2025-12-23T07:45:08.114015+00:00", "meta": {"OBJECT_NAME": "STARLINK-35419", "OBJECT_ID": "2025-268C", "EPOCH": "2025-12-23T00:00:00.999648", "MEAN_MOTION": 15.56162884, "ECCENTRICITY": 0.00014508, "INCLINATION": 43.0006, "RA_OF_ASC_NODE": 61.0376, "ARG_OF_PERICENTER": 260.9917, "MEAN_ANOMALY": 5.436, "EPHEMERIS_TYPE": 0, "CLASSIFICATION_TYPE": "U", "NORAD_CAT_ID": 66559, "ELEMENT_SET_NO": 999, "REV_AT_EPOCH": 605, "BSTAR": -0.032510893, "MEAN_MOTION_DOT": -0.02081458, "MEAN_MOTION_DDOT": 0}, "tle": {"line1": "1 66559U 25268C   25357.00001157 -.02081458  00000+0 -32511-1 0  9992", "line2": "2 66559  43.0006  61.0376 0001450 260.9917   5.4360 15.56162884  6058"}}, "geometry": {"type": "Point", "coordinates": [-21.01881510835653, -42.55618854994259]}}, {"type": "Feature", "properties": {"norad_id": 66560, "name": "STARLINK-35411", "group": "last-30-days", "lat": -42.212948191158524, "lon": -17.65056287884502, "alt_km": 403.5263407050079, "timestamp": "2025-12-23T07:45:08.114026+00:00", "meta": {"OBJECT_NAME": "STARLINK-35411", "OBJECT_ID": "2025-268D", "EPOCH": "2025-12-23T00:00:00.999648", "MEAN_MOTION": 15.56753256, "ECCENTRICITY": 0.00015637, "INCLINATION": 43.0004, "RA_OF_ASC_NODE": 61.0327, "ARG_OF_PERICENTER": 262.7185, "MEAN_ANOMALY": 5.556, "EPHEMERIS_TYPE": 0, "CLASSIFICATION_TYPE": "U", "NORAD_CAT_ID": 66560, "ELEMENT_SET_NO": 999, "REV_AT_EPOCH": 610, "BSTAR": -0.032393808, "MEAN_MOTION_DOT": -0.02116264, "MEAN_MOTION_DDOT": 0}, "tle": {"line1": "1 66560U 25268D   25357.00001157 -.02116264  00000+0 -32394-1 0  9997", "line2": "2 66560  43.0004  61.0327 0001563 262.7185   5.5560 15.56753256  6104"}}, "geometry": {"type": "Point", "coordinates": [-17.65056287884502, -42.212948191158524]}}, {"type": "Feature", "properties": {"norad_id": 66561, "name": "STARLINK-35305", "group": "last-30-days", "lat": -41.37632539860894, "lon": -11.84297135669341, "alt_km": 400.32113800509615, "timestamp": "2025-12-23T07:45:08.114059+00:00", "meta": {"OBJECT_NAME": "STARLINK-35305", "OBJECT_ID": "2025-268E", "EPOCH": "2025-12-23T00:00:00.999648", "MEAN_MOTION": 15.56443544, "ECCENTRICITY": 0.00015672, "INCLINATION": 43.0007, "RA_OF_ASC_NODE": 61.0231, "ARG_OF_PERICENTER": 274.9345, "MEAN_ANOMALY": 357.2734, "EPHEMERIS_TYPE": 0, "CLASSIFICATION_TYPE": "U", "NORAD_CAT_ID": 66561, "ELEMENT_SET_NO": 999, "REV_AT_EPOCH": 605, "BSTAR": -0.00089343691, "MEAN_MOTION_DOT": -0.00064735, "MEAN_MOTION_DDOT": 0}, "tle": {"line1": "1 66561U 25268E   25357.00001157 -.00064735  00000+0 -89344-3 0  9990", "line2": "2 66561  43.0007  61.0231 0001567 274.9345 357.2734 15.56443544  6059"}}, "geometry": {"type": "Point", "coordinates": [-11.84297135669341, -41.37632539860894]}}, {"type": "Feature", "properties": {"norad_id": 66562, "name": "STARLINK-35579", "group": "last-30-days", "lat": -41.79203912073798, "lon": -14.457453961173623, "alt_km": 401.290464284466, "timestamp": "2025-12-23T07:45:08.114071+00:00", "meta": {"OBJECT_NAME": "STARLINK-35579", "OBJECT_ID": "2025-268F", "EPOCH": "2025-12-23T00:00:00.999648", "MEAN_MOTION": 15.56762875, "ECCENTRICITY": 0.00017107, "INCLINATION": 43.0006, "RA_OF_ASC_NODE": 61.0276, "ARG_OF_PERICENTER": 265.2579, "MEAN_ANOMALY": 4.9789, "EPHEMERIS_TYPE": 0, "CLASSIFICATION_TYPE": "U", "NORAD_CAT_ID": 66562, "ELEMENT_SET_NO": 999, "REV_AT_EPOCH": 610, "BSTAR": -0.015853412, "MEAN_MOTION_DOT": -0.01059727, "MEAN_MOTION_DDOT": 0}, "tle": {"line1": "1 66562U 25268F   25357.00001157 -.01059727  00000+0 -15853-1 0  9999", "line2": "2 66562  43.0006  61.0276 0001710 265.2579   4.9789 15.56762875  6103"}}, "geometry": {"type": "Point", "coordinates": [-14.457453961173623, -41.79203912073798]}}, {"type": "Feature", "properties": {"norad_id": 66563, "name": "STARLINK-35437", "group": "last-30-days", "lat": -40.92390911044603, "lon": -9.376728824584745, "alt_km": 400.281239763508, "timestamp": "2025-12-23T07:45:08.114098+00:00", "meta": {"OBJECT_NAME": "STARLINK-35437", "OBJECT_ID": "2025-268G", "EPOCH": "2025-12-23T00:00:00.999648", "MEAN_MOTION": 15.56401159, "ECCENTRICITY": 0.00015965, "INCLINATION": 43.0006, "RA_OF_ASC_NODE": 61.0187, "ARG_OF_PERICENTER": 265.4778, "MEAN_ANOMALY": 8.6574, "EPHEMERIS_TYPE": 0, "CLASSIFICATION_TYPE": "U", "NORAD_CAT_ID": 66563, "ELEMENT_SET_NO": 999, "REV_AT_EPOCH": 610, "BSTAR": 0.00042454078, "MEAN_MOTION_DOT": 0.00030537, "MEAN_MOTION_DDOT": 0}, "tle": {"line1": "1 66563U 25268G   25357.00001157  .00030537  00000+0  42454-3 0  9994", "line2": "2 66563  43.0006  61.0187 0001596 265.4778   8.6574 15.56401159  6108"}}, "geometry": {"type": "Point", "coordinates": [-9.376728824584745, -40.92390911044603]}}]}